EUTELSAT 139 WEST A     
1 28187U 04008A   26027.48421012 -.00000131  00000+0  00000+0 0  9991
2 28187   5.4714  73.7195 0003229 151.6677 324.9418  1.00841953 79941
EUTELSAT 174A           
1 28924U 05052A   26027.46112351  .00000014  00000+0  00000+0 0  9990
2 28924   3.8609  78.2969 0006533 228.6770 159.7154  1.00270613 50921
EUTELSAT 33F            
1 29270U 06032A   26027.29047593  .00000164  00000+0  00000+0 0  9996
2 29270   1.2968  83.9310 0003673 222.5871 317.6734  1.00271089 45893
EUTELSAT HOTBIRD 13C    
1 33459U 08065A   26027.41666326 -.00000276  00000+0  00000+0 0  9998
2 33459   2.5876  80.9029 0003727 232.6362 272.8402  1.00270817 45937
EUTELSAT 36B            
1 36101U 09065A   26027.29836590  .00000122  00000+0  00000+0 0  9993
2 36101   0.1344  71.7502 0006075 237.1607 335.5583  1.00272770 59294
EUTELSAT KA-SAT 9A      
1 37258U 10069A   26027.35703628  .00000070  00000+0  00000+0 0  9997
2 37258   0.0532 339.0389 0001909 178.2187 106.8648  1.00267813 42596
EUTELSAT 7 WEST A       
1 37816U 11051A   26027.42515667 -.00000051  00000+0  00000+0 0  9991
2 37816   0.0673 338.5592 0003954 263.8589  30.0096  1.00270606 52467
EUTELSAT 16A            
1 37836U 11057A   26027.35842296  .00000113  00000+0  00000+0 0  9990
2 37836   0.0586 337.5001 0005193 331.0762 323.0740  1.00273849  5915
